ORBCOMM-X [-]           
1 21576U 91050C   23311.47040285  .00001040  00000+0  32872-3 0  9995
2 21576  98.4199  17.0040 0004271 146.8930 213.2527 14.42245552697378
ORBCOMM FM01 [-]        
1 23545U 95017A   23311.59197990  .00009822  00000+0  13937-2 0  9995
2 23545  69.9679  83.0712 0003039 161.7530 198.3728 14.77198550525395
ORBCOMM FM02 [-]        
1 23546U 95017B   23311.56983856  .00008516  00000+0  12246-2 0  9998
2 23546  69.9687 102.2187 0004766 138.4284 221.7226 14.76687932525042
ORBCOMM FM08 [-]        
1 25112U 97084A   23311.34531853  .00004294  00000+0  13522-2 0  9994
2 25112  45.0149 299.4771 0006249 176.7992 183.2898 14.41518936356439
ORBCOMM FM11 [+]        
1 25114U 97084C   23311.34687127  .00004255  00000+0  13453-2 0  9992
2 25114  45.0147 301.1299 0003949 144.2606 215.8508 14.41347121356550
ORBCOMM FM12 [-]        
1 25115U 97084D   23311.37260115  .00004138  00000+0  13100-2 0  9999
2 25115  45.0155 300.6535 0003029 150.2681 209.8341 14.41330108356359
ORBCOMM FM09 [-]        
1 25116U 97084E   23311.37983103  .00003880  00000+0  12316-2 0  9990
2 25116  45.0161 301.2556 0003917 121.8215 238.3016 14.41303163356560
